[{"OBJECT_NAME":"COSMOS 2531 (RODNIK-S 17)","OBJECT_ID":"2018-097B","EPOCH":"2026-03-06T20:20:37.119840","MEAN_MOTION":12.42909123,"ECCENTRICITY":0.0016015,"INCLINATION":82.516,"RA_OF_ASC_NODE":286.8423,"ARG_OF_PERICENTER":279.4591,"MEAN_ANOMALY":80.4678,"EPHEMERIS_TYPE":0,"CLASSIFICATION_TYPE":"U","NORAD_CAT_ID":43752,"ELEMENT_SET_NO":999,"REV_AT_EPOCH":32959,"BSTAR":2.3071e-5,"MEAN_MOTION_DOT":1.3e-7,"MEAN_MOTION_DDOT":0},{"OBJECT_NAME":"COSMOS 2532 (RODNIK-S 18)","OBJECT_ID":"2018-097C","EPOCH":"2026-03-06T21:00:56.375136","MEAN_MOTION":12.42905529,"ECCENTRICITY":0.0017393,"INCLINATION":82.5102,"RA_OF_ASC_NODE":285.6571,"ARG_OF_PERICENTER":281.4885,"MEAN_ANOMALY":78.4241,"EPHEMERIS_TYPE":0,"CLASSIFICATION_TYPE":"U","NORAD_CAT_ID":43753,"ELEMENT_SET_NO":999,"REV_AT_EPOCH":32956,"BSTAR":6.5602e-6,"MEAN_MOTION_DOT":1.1e-7,"MEAN_MOTION_DDOT":0},{"OBJECT_NAME":"MINXSS-2","OBJECT_ID":"2018-099A","EPOCH":"2026-03-06T11:13:57.953568","MEAN_MOTION":15.40056905,"ECCENTRICITY":0.00074907,"INCLINATION":97.463,"RA_OF_ASC_NODE":139.2327,"ARG_OF_PERICENTER":272.5697,"MEAN_ANOMALY":87.4691,"EPHEMERIS_TYPE":0,"CLASSIFICATION_TYPE":"U","NORAD_CAT_ID":43758,"ELEMENT_SET_NO":999,"REV_AT_EPOCH":39828,"BSTAR":0.00083689028,"MEAN_MOTION_DOT":0.00033501,"MEAN_MOTION_DDOT":0},{"OBJECT_NAME":"SIRION PATHFINDER-2","OBJECT_ID":"2018-099B","EPOCH":"2026-03-06T01:57:20.278944","MEAN_MOTION":15.13484751,"ECCENTRICITY":0.00075134,"INCLINATION":97.439,"RA_OF_ASC_NODE":116.5924,"ARG_OF_PERICENTER":301.2937,"MEAN_ANOMALY":58.7558,"EPHEMERIS_TYPE":0,"CLASSIFICATION_TYPE":"U","NORAD_CAT_ID":43759,"ELEMENT_SET_NO":999,"REV_AT_EPOCH":39702,"BSTAR":0.00036705073,"MEAN_MOTION_DOT":6.509e-5,"MEAN_MOTION_DDOT":0},{"OBJECT_NAME":"AISTECHSAT 2","OBJECT_ID":"2018-099L","EPOCH":"2026-03-06T02:41:46.506048","MEAN_MOTION":15.14279026,"ECCENTRICITY":0.00033064,"INCLINATION":97.4435,"RA_OF_ASC_NODE":115.4122,"ARG_OF_PERICENTER":307.0359,"MEAN_ANOMALY":53.057,"EPHEMERIS_TYPE":0,"CLASSIFICATION_TYPE":"U","NORAD_CAT_ID":43768,"ELEMENT_SET_NO":999,"REV_AT_EPOCH":39667,"BSTAR":0.00033250426,"MEAN_MOTION_DOT":6.02e-5,"MEAN_MOTION_DDOT":0},{"OBJECT_NAME":"FOX-1CLIFF (AO-95)","OBJECT_ID":"2018-099N","EPOCH":"2026-03-06T10:14:26.244096","MEAN_MOTION":15.24305372,"ECCENTRICITY":0.00086374,"INCLINATION":97.4512,"RA_OF_ASC_NODE":126.1666,"ARG_OF_PERICENTER":359.283,"MEAN_ANOMALY":0.8394,"EPHEMERIS_TYPE":0,"CLASSIFICATION_TYPE":"U","NORAD_CAT_ID":43770,"ELEMENT_SET_NO":999,"REV_AT_EPOCH":39755,"BSTAR":0.00057434427,"MEAN_MOTION_DOT":0.00013994,"MEAN_MOTION_DDOT":0},{"OBJECT_NAME":"2018-099Q","OBJECT_ID":"2018-099Q","EPOCH":"2026-03-06T10:20:04.210656","MEAN_MOTION":15.56859797,"ECCENTRICITY":0.00029566,"INCLINATION":97.4304,"RA_OF_ASC_NODE":140.6862,"ARG_OF_PERICENTER":215.9107,"MEAN_ANOMALY":144.1949,"EPHEMERIS_TYPE":0,"CLASSIFICATION_TYPE":"U","NORAD_CAT_ID":43772,"ELEMENT_SET_NO":999,"REV_AT_EPOCH":39854,"BSTAR":0.0013343018,"MEAN_MOTION_DOT":0.00096703,"MEAN_MOTION_DDOT":0},{"OBJECT_NAME":"RANGE-A","OBJECT_ID":"2018-099R","EPOCH":"2026-03-06T01:36:35.282592","MEAN_MOTION":15.12406651,"ECCENTRICITY":0.00100753,"INCLINATION":97.4107,"RA_OF_ASC_NODE":110.6591,"ARG_OF_PERICENTER":353.1142,"MEAN_ANOMALY":6.9949,"EPHEMERIS_TYPE":0,"CLASSIFICATION_TYPE":"U","NORAD_CAT_ID":43773,"ELEMENT_SET_NO":999,"REV_AT_EPOCH":39690,"BSTAR":0.00036303332,"MEAN_MOTION_DOT":6.249e-5,"MEAN_MOTION_DDOT":0},{"OBJECT_NAME":"SNUSAT-2","OBJECT_ID":"2018-099AA","EPOCH":"2026-03-06T13:45:07.423776","MEAN_MOTION":15.20091829,"ECCENTRICITY":0.00091567,"INCLINATION":97.4197,"RA_OF_ASC_NODE":120.589,"ARG_OF_PERICENTER":298.2182,"MEAN_ANOMALY":61.8128,"EPHEMERIS_TYPE":0,"CLASSIFICATION_TYPE":"U","NORAD_CAT_ID":43782,"ELEMENT_SET_NO":999,"REV_AT_EPOCH":39743,"BSTAR":0.00051647643,"MEAN_MOTION_DOT":0.00011105,"MEAN_MOTION_DDOT":0},{"OBJECT_NAME":"SNUGLITE","OBJECT_ID":"2018-099AC","EPOCH":"2026-03-06T14:07:36.256512","MEAN_MOTION":15.24730279,"ECCENTRICITY":0.0001381,"INCLINATION":97.4005,"RA_OF_ASC_NODE":120.9862,"ARG_OF_PERICENTER":302.7204,"MEAN_ANOMALY":57.39,"EPHEMERIS_TYPE":0,"CLASSIFICATION_TYPE":"U","NORAD_CAT_ID":43784,"ELEMENT_SET_NO":999,"REV_AT_EPOCH":39767,"BSTAR":0.00063339532,"MEAN_MOTION_DOT":0.00015626,"MEAN_MOTION_DDOT":0},{"OBJECT_NAME":"ITASAT","OBJECT_ID":"2018-099AE","EPOCH":"2026-03-06T01:58:27.701184","MEAN_MOTION":15.17603175,"ECCENTRICITY":0.00125631,"INCLINATION":97.4167,"RA_OF_ASC_NODE":118.6838,"ARG_OF_PERICENTER":359.4146,"MEAN_ANOMALY":0.7071,"EPHEMERIS_TYPE":0,"CLASSIFICATION_TYPE":"U","NORAD_CAT_ID":43786,"ELEMENT_SET_NO":999,"REV_AT_EPOCH":39726,"BSTAR":0.00042271882,"MEAN_MOTION_DOT":8.451e-5,"MEAN_MOTION_DDOT":0},{"OBJECT_NAME":"EAGLET-I","OBJECT_ID":"2018-099AJ","EPOCH":"2026-03-06T02:43:07.361760","MEAN_MOTION":15.12061979,"ECCENTRICITY":0.00108586,"INCLINATION":97.4373,"RA_OF_ASC_NODE":117.5014,"ARG_OF_PERICENTER":350.1736,"MEAN_ANOMALY":9.9281,"EPHEMERIS_TYPE":0,"CLASSIFICATION_TYPE":"U","NORAD_CAT_ID":43790,"ELEMENT_SET_NO":999,"REV_AT_EPOCH":39675,"BSTAR":0.00026129759,"MEAN_MOTION_DOT":4.436e-5,"MEAN_MOTION_DDOT":0},{"OBJECT_NAME":"ESEO","OBJECT_ID":"2018-099AL","EPOCH":"2026-03-06T14:16:19.384320","MEAN_MOTION":15.03895926,"ECCENTRICITY":0.00113951,"INCLINATION":97.4108,"RA_OF_ASC_NODE":107.3265,"ARG_OF_PERICENTER":328.2422,"MEAN_ANOMALY":31.8116,"EPHEMERIS_TYPE":0,"CLASSIFICATION_TYPE":"U","NORAD_CAT_ID":43792,"ELEMENT_SET_NO":999,"REV_AT_EPOCH":39638,"BSTAR":0.00024671476,"MEAN_MOTION_DOT":3.345e-5,"MEAN_MOTION_DDOT":0},{"OBJECT_NAME":"THEA","OBJECT_ID":"2018-099AQ","EPOCH":"2026-03-06T03:35:33.570240","MEAN_MOTION":15.31268643,"ECCENTRICITY":0.0006658,"INCLINATION":97.455,"RA_OF_ASC_NODE":134.0703,"ARG_OF_PERICENTER":291.5526,"MEAN_ANOMALY":68.5005,"EPHEMERIS_TYPE":0,"CLASSIFICATION_TYPE":"U","NORAD_CAT_ID":43796,"ELEMENT_SET_NO":999,"REV_AT_EPOCH":39690,"BSTAR":0.00073733,"MEAN_MOTION_DOT":0.00022244,"MEAN_MOTION_DDOT":0},{"OBJECT_NAME":"ASTROCAST 0.1","OBJECT_ID":"2018-099AS","EPOCH":"2026-03-06T03:59:21.259392","MEAN_MOTION":15.42709353,"ECCENTRICITY":0.00053701,"INCLINATION":97.4465,"RA_OF_ASC_NODE":140.945,"ARG_OF_PERICENTER":222.3358,"MEAN_ANOMALY":137.7476,"EPHEMERIS_TYPE":0,"CLASSIFICATION_TYPE":"U","NORAD_CAT_ID":43798,"ELEMENT_SET_NO":999,"REV_AT_EPOCH":39851,"BSTAR":0.00075578797,"MEAN_MOTION_DOT":0.0003301,"MEAN_MOTION_DDOT":0},{"OBJECT_NAME":"JY1SAT (JO-97)","OBJECT_ID":"2018-099AX","EPOCH":"2026-03-06T17:50:57.388128","MEAN_MOTION":15.30161965,"ECCENTRICITY":0.0004679,"INCLINATION":97.4256,"RA_OF_ASC_NODE":128.4202,"ARG_OF_PERICENTER":270.692,"MEAN_ANOMALY":89.3784,"EPHEMERIS_TYPE":0,"CLASSIFICATION_TYPE":"U","NORAD_CAT_ID":43803,"ELEMENT_SET_NO":999,"REV_AT_EPOCH":39794,"BSTAR":0.00079105,"MEAN_MOTION_DOT":0.00023062,"MEAN_MOTION_DDOT":0},{"OBJECT_NAME":"SUOMI-100","OBJECT_ID":"2018-099AY","EPOCH":"2026-03-06T14:24:58.037472","MEAN_MOTION":15.25889468,"ECCENTRICITY":0.00089546,"INCLINATION":97.432,"RA_OF_ASC_NODE":126.496,"ARG_OF_PERICENTER":282.4842,"MEAN_ANOMALY":77.5394,"EPHEMERIS_TYPE":0,"CLASSIFICATION_TYPE":"U","NORAD_CAT_ID":43804,"ELEMENT_SET_NO":999,"REV_AT_EPOCH":39776,"BSTAR":0.00059547922,"MEAN_MOTION_DOT":0.00015221,"MEAN_MOTION_DDOT":0},{"OBJECT_NAME":"AL-FARABI 2","OBJECT_ID":"2018-099AZ","EPOCH":"2026-03-06T04:02:22.168896","MEAN_MOTION":15.66833859,"ECCENTRICITY":0.00045756,"INCLINATION":97.4108,"RA_OF_ASC_NODE":140.8106,"ARG_OF_PERICENTER":223.4966,"MEAN_ANOMALY":136.5934,"EPHEMERIS_TYPE":0,"CLASSIFICATION_TYPE":"U","NORAD_CAT_ID":43805,"ELEMENT_SET_NO":999,"REV_AT_EPOCH":39880,"BSTAR":0.0013517752,"MEAN_MOTION_DOT":0.00144775,"MEAN_MOTION_DDOT":0},{"OBJECT_NAME":"CENTAURI-1","OBJECT_ID":"2018-099BD","EPOCH":"2026-03-06T02:14:15.583488","MEAN_MOTION":15.15188899,"ECCENTRICITY":0.00135058,"INCLINATION":97.4362,"RA_OF_ASC_NODE":119.0389,"ARG_OF_PERICENTER":331.3068,"MEAN_ANOMALY":28.742,"EPHEMERIS_TYPE":0,"CLASSIFICATION_TYPE":"U","NORAD_CAT_ID":43809,"ELEMENT_SET_NO":999,"REV_AT_EPOCH":39688,"BSTAR":0.00037969322,"MEAN_MOTION_DOT":7.079e-5,"MEAN_MOTION_DDOT":0},{"OBJECT_NAME":"GLOBAL-2","OBJECT_ID":"2018-099BG","EPOCH":"2026-03-06T12:20:59.944416","MEAN_MOTION":15.08018139,"ECCENTRICITY":0.00070738,"INCLINATION":97.3694,"RA_OF_ASC_NODE":106.2727,"ARG_OF_PERICENTER":137.0551,"MEAN_ANOMALY":223.1231,"EPHEMERIS_TYPE":0,"CLASSIFICATION_TYPE":"U","NORAD_CAT_ID":43812,"ELEMENT_SET_NO":999,"REV_AT_EPOCH":39643,"BSTAR":0.00031332526,"MEAN_MOTION_DOT":4.766e-5,"MEAN_MOTION_DDOT":0},{"OBJECT_NAME":"SEAHAWK-1","OBJECT_ID":"2018-099BQ","EPOCH":"2026-03-06T02:35:49.247232","MEAN_MOTION":15.20929653,"ECCENTRICITY":0.0007228,"INCLINATION":97.4099,"RA_OF_ASC_NODE":119.2289,"ARG_OF_PERICENTER":317.4426,"MEAN_ANOMALY":42.6249,"EPHEMERIS_TYPE":0,"CLASSIFICATION_TYPE":"U","NORAD_CAT_ID":43820,"ELEMENT_SET_NO":999,"REV_AT_EPOCH":39685,"BSTAR":0.00046830842,"MEAN_MOTION_DOT":0.00010307,"MEAN_MOTION_DDOT":0},{"OBJECT_NAME":"SAUDISAT 5A","OBJECT_ID":"2018-102A","EPOCH":"2026-03-06T20:10:18.825024","MEAN_MOTION":15.26887368,"ECCENTRICITY":0.0011242,"INCLINATION":97.3191,"RA_OF_ASC_NODE":129.4137,"ARG_OF_PERICENTER":131.6379,"MEAN_ANOMALY":228.5825,"EPHEMERIS_TYPE":0,"CLASSIFICATION_TYPE":"U","NORAD_CAT_ID":43831,"ELEMENT_SET_NO":999,"REV_AT_EPOCH":40005,"BSTAR":0.00031517,"MEAN_MOTION_DOT":8.267e-5,"MEAN_MOTION_DDOT":0},{"OBJECT_NAME":"SAUDISAT 5B","OBJECT_ID":"2018-102C","EPOCH":"2026-03-06T21:04:51.772800","MEAN_MOTION":15.2719898,"ECCENTRICITY":0.0011884,"INCLINATION":97.3288,"RA_OF_ASC_NODE":132.3376,"ARG_OF_PERICENTER":133.6949,"MEAN_ANOMALY":226.5277,"EPHEMERIS_TYPE":0,"CLASSIFICATION_TYPE":"U","NORAD_CAT_ID":43833,"ELEMENT_SET_NO":999,"REV_AT_EPOCH":40017,"BSTAR":0.00029138,"MEAN_MOTION_DOT":7.712e-5,"MEAN_MOTION_DDOT":0}]
